[{"OBJECT_NAME":"POLYITAN-1","OBJECT_ID":"2014-033AJ","EPOCH":"2026-03-09T22:27:50.258304","MEAN_MOTION":15.29568085,"ECCENTRICITY":0.00093607,"INCLINATION":98.1053,"RA_OF_ASC_NODE":86.0432,"ARG_OF_PERICENTER":127.248,"MEAN_ANOMALY":232.9614,"EPHEMERIS_TYPE":0,"CLASSIFICATION_TYPE":"U","NORAD_CAT_ID":40042,"ELEMENT_SET_NO":999,"REV_AT_EPOCH":63840,"BSTAR":0.00083772474,"MEAN_MOTION_DOT":0.00024003,"MEAN_MOTION_DDOT":0},{"OBJECT_NAME":"STARLINK-35116","OBJECT_ID":"2025-235W","EPOCH":"2026-03-09T21:22:06.443040","MEAN_MOTION":15.30205087,"ECCENTRICITY":6.066e-5,"INCLINATION":53.1593,"RA_OF_ASC_NODE":244.2307,"ARG_OF_PERICENTER":46.7534,"MEAN_ANOMALY":313.3517,"EPHEMERIS_TYPE":0,"CLASSIFICATION_TYPE":"U","NORAD_CAT_ID":66078,"ELEMENT_SET_NO":999,"REV_AT_EPOCH":2295,"BSTAR":0.0012607089,"MEAN_MOTION_DOT":0.00037172,"MEAN_MOTION_DDOT":0}]
